OBJECT B                
1 51825U 22019B   25122.92394365  .00034743  00000+0  90010-3 0  9991
2 51825  97.3859 199.2188 0011342 177.5876 182.5426 15.38896242176105
